     2.10           N: GPS NAV DATA                         RINEX VERSION / TYPE
TPP                 Reference Data Shop 2016-10-19 07:58:47 PGM / RUN BY / DATE 
                                                            COMMENT             
                                                            COMMENT             
                                                            COMMENT             
     .1583E-07   .0000E+00  -.1192E-06   .0000E+00          ION ALPHA           
     .1106E+06   .0000E+00  -.2621E+06   .6554E+05          ION BETA            
     .931322574615E-09  .888178419700E-15   405504     1918 DELTA-UTC: A0,A1,T,W
    17                                                      LEAP SECONDS        
                                                            END OF HEADER       
32 16 10 12 16  0  0.0 -.151467043906E-03 -.156887836056E-10  .000000000000E+00
     .360000000000E+02  .520000000000E+02  .489841832450E-08 -.941643205116E+00
     .257045030594E-05  .627066008747E-03  .608712434769E-05  .515364838028E+04
     .316800000000E+06  .875443220139E-07 -.258383619986E+01  .931322574615E-08
     .959201853030E+00  .264750000000E+03 -.241161796379E+01 -.833427572747E-08
     .164292557730E-09  .000000000000E+00  .191800000000E+04  .000000000000E+00
     .200000000000E+01  .000000000000E+00  .931322574615E-09  .360000000000E+02
     .309618000000E+06  .000000000000E+00  .000000000000E+00  .000000000000E+00
01 16 10 13  0  0  0.0  .370084308088E-04  .125055521494E-11  .000000000000E+00
     .108000000000E+03 -.801562500000E+02  .461269213714E-08  .619391184906E+00
    -.423938035965E-05  .593043782283E-02  .558048486710E-05  .515370166206E+04
     .345600000000E+06 -.372529029846E-07  .161732811554E+01  .949949026108E-07
     .965069902715E+00  .276062500000E+03  .563040778623E+00 -.832641825731E-08
    -.281083136812E-09  .000000000000E+00  .191800000000E+04  .000000000000E+00
     .200000000000E+01  .000000000000E+00  .512227416039E-08  .108000000000E+03
     .342366000000E+06  .000000000000E+00  .000000000000E+00  .000000000000E+00
12 16 10 13  0  0  0.0  .389213208109E-03  .113686837722E-12  .000000000000E+00
     .720000000000E+02  .386875000000E+02  .363157984131E-08 -.632218072569E+00
     .189058482647E-05  .604640599340E-02  .126268714666E-04  .515365390396E+04
     .345600000000E+06  .484287738800E-07 -.428062375979E+00  .119209289551E-06
     .990322801914E+00  .151375000000E+03  .784583424820E+00 -.770032074927E-08
    -.771460705864E-10  .000000000000E+00  .191800000000E+04  .000000000000E+00
     .200000000000E+01  .000000000000E+00 -.125728547573E-07  .720000000000E+02
     .342432000000E+06  .000000000000E+00  .000000000000E+00  .000000000000E+00
